{"type":"Feature","properties":{},"geometry":{"type":"MultiPolygon","coordinates":[[[[121.057305367242,14.16534874428978],[121.06089788165606,14.130261782441272],[121.07147792858517,14.096528293593899],[121.08863623491345,14.065443748175662],[121.11171163640013,14.03820139087664],[121.13981675078072,14.015846585683791],[121.17187216649234,13.999236876935534],[121.20664782170624,13.98900926608331],[121.24281,13.985555927255088],[121.27897217829377,13.98900926608331],[121.31374783350768,13.999236876935534],[121.34580324921929,14.015846585683791],[121.37390836359988,14.03820139087664],[121.39698376508656,14.065443748175662],[121.41414207141484,14.096528293593899],[121.42472211834396,14.130261782441272],[121.42831463275803,14.16534874428978],[121.42477836525362,14.200441130113603],[121.41424600227722,14.234190065154344],[121.397119557547,14.26529772748573],[121.3740553446124,14.292567353121852],[121.34593904225709,14.314949426737119],[121.31385176518657,14.331582252604495],[121.2790284257808,14.341825309856054],[121.24281,14.345284072744905],[121.20659157421922,14.341825309856054],[121.17176823481344,14.331582252604495],[121.13968095774293,14.314949426737119],[121.11156465538761,14.292567353121852],[121.08850044245301,14.26529772748573],[121.07137399772279,14.234190065154344],[121.0608416347464,14.200441130113603],[121.057305367242,14.16534874428978]],[[121.057915,14.161373],[121.057915,14.169467],[121.060695,14.174863],[121.060695,14.196447],[121.063475,14.201842],[121.063475,14.207238],[121.066256,14.212634],[121.066256,14.215332],[121.069036,14.220728],[121.069036,14.226124],[121.071817,14.23152],[121.071817,14.234218],[121.077377,14.24501],[121.080158,14.247708],[121.085718,14.2585],[121.088499,14.263896],[121.091279,14.266594],[121.09406,14.269292],[121.09684,14.274687],[121.09962,14.277385],[121.102401,14.280083],[121.105181,14.282781],[121.107962,14.288177],[121.113522,14.293573],[121.116303,14.296271],[121.121863,14.298969],[121.124644,14.301667],[121.127424,14.304365],[121.130205,14.307063],[121.135765,14.309761],[121.138546,14.312459],[121.141326,14.315157],[121.152448,14.320553],[121.158008,14.323251],[121.163569,14.325949],[121.16635,14.328647],[121.17191,14.331345],[121.174691,14.331345],[121.180251,14.334043],[121.185812,14.334043],[121.191373,14.336741],[121.194153,14.336741],[121.199714,14.339438],[121.205275,14.339438],[121.210836,14.342136],[121.233079,14.342136],[121.238639,14.344834],[121.246981,14.344834],[121.252541,14.342136],[121.274784,14.342136],[121.280345,14.339438],[121.285906,14.339438],[121.291467,14.336741],[121.294247,14.336741],[121.299808,14.334043],[121.305369,14.334043],[121.310929,14.331345],[121.31371,14.331345],[121.31927,14.328647],[121.322051,14.325949],[121.327612,14.323251],[121.333172,14.320553],[121.344294,14.315157],[121.347074,14.312459],[121.349855,14.309761],[121.355415,14.307063],[121.358196,14.304365],[121.360976,14.301667],[121.363757,14.298969],[121.369317,14.296271],[121.372098,14.293573],[121.377658,14.288177],[121.380439,14.282781],[121.383219,14.280083],[121.386,14.277385],[121.38878,14.274687],[121.39156,14.269292],[121.394341,14.266594],[121.397121,14.263896],[121.399902,14.2585],[121.405462,14.247708],[121.408243,14.24501],[121.413803,14.234218],[121.413803,14.23152],[121.416584,14.226124],[121.416584,14.220728],[121.419364,14.215332],[121.419364,14.212634],[121.422145,14.207238],[121.422145,14.201842],[121.424925,14.196447],[121.424925,14.174863],[121.427705,14.169467],[121.427705,14.161373],[121.424925,14.155977],[121.424925,14.134393],[121.422145,14.128998],[121.422145,14.123602],[121.419364,14.118206],[121.419364,14.115508],[121.416584,14.110112],[121.416584,14.104716],[121.413803,14.09932],[121.413803,14.096622],[121.411023,14.091226],[121.408243,14.088528],[121.405462,14.083132],[121.399902,14.07234],[121.397121,14.066944],[121.394341,14.064246],[121.39156,14.061548],[121.38878,14.056153],[121.386,14.053455],[121.383219,14.050757],[121.380439,14.048059],[121.377658,14.042663],[121.372098,14.037267],[121.369317,14.034569],[121.363757,14.031871],[121.360976,14.029173],[121.358196,14.026475],[121.355415,14.023777],[121.349855,14.021079],[121.347074,14.018381],[121.344294,14.015683],[121.333172,14.010287],[121.327612,14.007589],[121.322051,14.004891],[121.31927,14.002193],[121.31371,13.999495],[121.310929,13.999495],[121.305369,13.996797],[121.299808,13.996797],[121.294247,13.994099],[121.291467,13.994099],[121.285906,13.991402],[121.280345,13.991402],[121.274784,13.988704],[121.252541,13.988704],[121.246981,13.986006],[121.238639,13.986006],[121.233079,13.988704],[121.210836,13.988704],[121.205275,13.991402],[121.199714,13.991402],[121.194153,13.994099],[121.191373,13.994099],[121.185812,13.996797],[121.180251,13.996797],[121.174691,13.999495],[121.17191,13.999495],[121.16635,14.002193],[121.163569,14.004891],[121.158008,14.007589],[121.152448,14.010287],[121.141326,14.015683],[121.138546,14.018381],[121.135765,14.021079],[121.130205,14.023777],[121.127424,14.026475],[121.124644,14.029173],[121.121863,14.031871],[121.116303,14.034569],[121.113522,14.037267],[121.107962,14.042663],[121.105181,14.048059],[121.102401,14.050757],[121.09962,14.053455],[121.09684,14.056153],[121.09406,14.061548],[121.091279,14.064246],[121.088499,14.066944],[121.085718,14.07234],[121.080158,14.083132],[121.077377,14.088528],[121.074597,14.091226],[121.071817,14.096622],[121.071817,14.09932],[121.069036,14.104716],[121.069036,14.110112],[121.066256,14.115508],[121.066256,14.118206],[121.063475,14.123602],[121.063475,14.128998],[121.060695,14.134393],[121.060695,14.155977],[121.057915,14.161373]]],[[[121.138546,14.290875],[121.141326,14.285479],[121.144106,14.282781],[121.146887,14.280083],[121.146887,14.277385],[121.144106,14.277385],[121.141326,14.271989],[121.144106,14.266594],[121.141326,14.263896],[121.144106,14.2585],[121.146887,14.255802],[121.149667,14.250406],[121.149667,14.24501],[121.152448,14.239614],[121.155228,14.239614],[121.155228,14.234218],[121.152448,14.228822],[121.149667,14.223426],[121.155228,14.220728],[121.152448,14.215332],[121.155228,14.212634],[121.158008,14.207238],[121.160789,14.201842],[121.16635,14.201842],[121.160789,14.199145],[121.158008,14.193749],[121.158008,14.191051],[121.160789,14.185655],[121.163569,14.185655],[121.16913,14.182957],[121.174691,14.182957],[121.174691,14.180259],[121.177471,14.174863],[121.180251,14.174863],[121.185812,14.172165],[121.188593,14.169467],[121.194153,14.172165],[121.199714,14.169467],[121.202494,14.166769],[121.208055,14.169467],[121.210836,14.172165],[121.213616,14.172165],[121.219177,14.174863],[121.221957,14.174863],[121.227518,14.177561],[121.233079,14.174863],[121.235859,14.174863],[121.24142,14.172165],[121.2442,14.172165],[121.249761,14.169467],[121.249761,14.166769],[121.252541,14.161373],[121.252541,14.158675],[121.255322,14.153279],[121.260882,14.150581],[121.263663,14.147883],[121.269224,14.150581],[121.274784,14.145185],[121.277565,14.139789],[121.283126,14.137091],[121.288686,14.137091],[121.291467,14.142487],[121.294247,14.137091],[121.302588,14.137091],[121.31371,14.142487],[121.31649,14.145185],[121.322051,14.147883],[121.324831,14.150581],[121.327612,14.155977],[121.327612,14.161373],[121.333172,14.164071],[121.335953,14.166769],[121.338733,14.169467],[121.344294,14.172165],[121.341514,14.177561],[121.335953,14.177561],[121.335953,14.182957],[121.338733,14.185655],[121.344294,14.188353],[121.347074,14.182957],[121.352635,14.182957],[121.355415,14.185655],[121.358196,14.188353],[121.358196,14.193749],[121.352635,14.196447],[121.349855,14.191051],[121.347074,14.191051],[121.349855,14.196447],[121.352635,14.201842],[121.349855,14.20454],[121.347074,14.20454],[121.349855,14.207238],[121.352635,14.209936],[121.355415,14.209936],[121.358196,14.212634],[121.360976,14.21803],[121.358196,14.223426],[121.358196,14.228822],[121.360976,14.234218],[121.363757,14.236916],[121.366537,14.239614],[121.369317,14.24501],[121.366537,14.247708],[121.360976,14.250406],[121.352635,14.250406],[121.355415,14.255802],[121.358196,14.261198],[121.360976,14.255802],[121.366537,14.2585],[121.369317,14.261198],[121.366537,14.266594],[121.372098,14.269292],[121.369317,14.274687],[121.363757,14.280083],[121.360976,14.282781],[121.358196,14.285479],[121.355415,14.288177],[121.349855,14.293573],[121.344294,14.296271],[121.341514,14.298969],[121.338733,14.301667],[121.333172,14.304365],[121.327612,14.304365],[121.324831,14.298969],[121.324831,14.296271],[121.305369,14.296271],[121.305369,14.315157],[121.302588,14.320553],[121.297027,14.320553],[121.291467,14.323251],[121.288686,14.323251],[121.283126,14.325949],[121.277565,14.325949],[121.272004,14.328647],[121.258102,14.328647],[121.255322,14.334043],[121.252541,14.334043],[121.249761,14.331345],[121.2442,14.331345],[121.24142,14.325949],[121.24142,14.317855],[121.2442,14.312459],[121.2442,14.309761],[121.24142,14.304365],[121.2442,14.301667],[121.246981,14.301667],[121.249761,14.298969],[121.2442,14.298969],[121.238639,14.301667],[121.235859,14.296271],[121.238639,14.293573],[121.235859,14.293573],[121.233079,14.298969],[121.233079,14.307063],[121.230298,14.312459],[121.227518,14.312459],[121.227518,14.320553],[121.224738,14.325949],[121.219177,14.328647],[121.213616,14.328647],[121.208055,14.325949],[121.202494,14.325949],[121.196934,14.323251],[121.194153,14.323251],[121.188593,14.320553],[121.185812,14.320553],[121.180251,14.317855],[121.177471,14.317855],[121.17191,14.315157],[121.16635,14.312459],[121.160789,14.309761],[121.158008,14.307063],[121.152448,14.304365],[121.146887,14.301667],[121.144106,14.298969],[121.141326,14.296271],[121.138546,14.290875]]],[[[121.141326,14.220728],[121.144106,14.215332],[121.146887,14.215332],[121.149667,14.220728],[121.146887,14.223426],[121.144106,14.223426],[121.141326,14.220728]]]]}}